{"type": "FeatureCollection", "features": [ {"type": "Feature", "properties": {"norad_id": 33799, "name": "COSMOS 2251 DEB", "group": "cosmos-2251-debris", "lat": -52.484553773234246, "lon": -77.94073696683785, "alt_km": 635.6771426467076, "timestamp": "2025-12-13T13:34:35.433178+00:00", "meta": {"OBJECT_NAME": "COSMOS 2251 DEB", "OBJECT_ID": "1993-036AQ", "EPOCH": "2025-12-13T00:19:46.197696", "MEAN_MOTION": 14.79600018, "ECCENTRICITY": 0.0023329, "INCLINATION": 74.0314, "RA_OF_ASC_NODE": 81.2471, "ARG_OF_PERICENTER": 151.8547, "MEAN_ANOMALY": 24.5773, "EPHEMERIS_TYPE": 0, "CLASSIFICATION_TYPE": "U", "NORAD_CAT_ID": 33799, "ELEMENT_SET_NO": 999, "REV_AT_EPOCH": 88815, "BSTAR": 0.0016622098, "MEAN_MOTION_DOT": 0.00012504, "MEAN_MOTION_DDOT": 0}, "tle": {"line1": "1 33799U 93036AQ  25347.01372914  .00012504  00000+0  16622-2 0  9990", "line2": "2 33799  74.0314  81.2471 0023329 151.8547  24.5773 14.79600018888159"}}, "geometry": {"type": "Point", "coordinates": [-77.94073696683785, -52.484553773234246]}}, {"type": "Feature", "properties": {"norad_id": 33805, "name": "COSMOS 2251 DEB", "group": "cosmos-2251-debris", "lat": -51.676686799263095, "lon": -71.48055187017188, "alt_km": 748.172994820492, "timestamp": "2025-12-13T13:34:35.433187+00:00", "meta": {"OBJECT_NAME": "COSMOS 2251 DEB", "OBJECT_ID": "1993-036AW", "EPOCH": "2025-12-12T23:00:26.418240", "MEAN_MOTION": 14.57856509, "ECCENTRICITY": 0.0060194, "INCLINATION": 74.0308, "RA_OF_ASC_NODE": 310.9142, "ARG_OF_PERICENTER": 139.8548, "MEAN_ANOMALY": 220.7088, "EPHEMERIS_TYPE": 0, "CLASSIFICATION_TYPE": "U", "NORAD_CAT_ID": 33805, "ELEMENT_SET_NO": 999, "REV_AT_EPOCH": 89230, "BSTAR": 0.00037169255, "MEAN_MOTION_DOT": 1.715e-05, "MEAN_MOTION_DDOT": 0}, "tle": {"line1": "1 33805U 93036AW  25346.95863910  .00001715  00000+0  37169-3 0  9993", "line2": "2 33805  74.0308 310.9142 0060194 139.8548 220.7088 14.57856509892300"}}, "geometry": {"type": "Point", "coordinates": [-71.48055187017188, -51.676686799263095]}}, {"type": "Feature", "properties": {"norad_id": 33811, "name": "COSMOS 2251 DEB", "group": "cosmos-2251-debris", "lat": -43.82281306295363, "lon": -75.21630493015243, "alt_km": 548.6568438670356, "timestamp": "2025-12-13T13:34:35.433196+00:00", "meta": {"OBJECT_NAME": "COSMOS 2251 DEB", "OBJECT_ID": "1993-036BC", "EPOCH": "2025-12-12T23:42:21.359808", "MEAN_MOTION": 15.05283226, "ECCENTRICITY": 0.00308049, "INCLINATION": 73.8382, "RA_OF_ASC_NODE": 302.142, "ARG_OF_PERICENTER": 22.7291, "MEAN_ANOMALY": 40.9737, "EPHEMERIS_TYPE": 0, "CLASSIFICATION_TYPE": "U", "NORAD_CAT_ID": 33811, "ELEMENT_SET_NO": 999, "REV_AT_EPOCH": 90022, "BSTAR": 0.0015677202, "MEAN_MOTION_DOT": 0.00022689, "MEAN_MOTION_DDOT": 0}, "tle": {"line1": "1 33811U 93036BC  25346.98774722  .00022689  00000+0  15677-2 0  9997", "line2": "2 33811  73.8382 302.1420 0030804  22.7291  40.9737 15.05283226900226"}}, "geometry": {"type": "Point", "coordinates": [-75.21630493015243, -43.82281306295363]}}, {"type": "Feature", "properties": {"norad_id": 33815, "name": "COSMOS 2251 DEB", "group": "cosmos-2251-debris", "lat": 56.913723325121296, "lon": -158.93528120249752, "alt_km": 506.5807580165447, "timestamp": "2025-12-13T13:34:35.433207+00:00", "meta": {"OBJECT_NAME": "COSMOS 2251 DEB", "OBJECT_ID": "1993-036BG", "EPOCH": "2025-12-12T15:28:27.862752", "MEAN_MOTION": 15.1799981, "ECCENTRICITY": 0.00021253, "INCLINATION": 73.9533, "RA_OF_ASC_NODE": 176.7823, "ARG_OF_PERICENTER": 231.7009, "MEAN_ANOMALY": 198.021, "EPHEMERIS_TYPE": 0, "CLASSIFICATION_TYPE": "U", "NORAD_CAT_ID": 33815, "ELEMENT_SET_NO": 999, "REV_AT_EPOCH": 88369, "BSTAR": 0.0084975676, "MEAN_MOTION_DOT": 0.00177118, "MEAN_MOTION_DDOT": 0}, "tle": {"line1": "1 33815U 93036BG  25346.64476693  .00177118  00000+0  84976-2 0  9996", "line2": "2 33815  73.9533 176.7823 0002125 231.7009 198.0210 15.17999810883693"}}, "geometry": {"type": "Point", "coordinates": [-158.93528120249752, 56.913723325121296]}}, {"type": "Feature", "properties": {"norad_id": 33816, "name": "COSMOS 2251 DEB", "group": "cosmos-2251-debris", "lat": -56.03522219510431, "lon": -50.60616899592607, "alt_km": 1065.9185938370574, "timestamp": "2025-12-13T13:34:35.433220+00:00", "meta": {"OBJECT_NAME": "COSMOS 2251 DEB", "OBJECT_ID": "1993-036BH", "EPOCH": "2025-12-12T17:19:58.664064", "MEAN_MOTION": 13.81783549, "ECCENTRICITY": 0.02646778, "INCLINATION": 73.8949, "RA_OF_ASC_NODE": 105.4256, "ARG_OF_PERICENTER": 118.36, "MEAN_ANOMALY": 244.4487, "EPHEMERIS_TYPE": 0, "CLASSIFICATION_TYPE": "U", "NORAD_CAT_ID": 33816, "ELEMENT_SET_NO": 999, "REV_AT_EPOCH": 84673, "BSTAR": 0.00072918327, "MEAN_MOTION_DOT": 9.97e-06, "MEAN_MOTION_DDOT": 0}, "tle": {"line1": "1 33816U 93036BH  25346.72220676  .00000997  00000+0  72918-3 0  9998", "line2": "2 33816  73.8949 105.4256 0264677 118.3600 244.4487 13.81783549846737"}}, "geometry": {"type": "Point", "coordinates": [-50.60616899592607, -56.03522219510431]}}, {"type": "Feature", "properties": {"norad_id": 33818, "name": "COSMOS 2251 DEB", "group": "cosmos-2251-debris", "lat": -63.00603134391511, "lon": 130.4446167177803, "alt_km": 549.1865844573549, "timestamp": "2025-12-13T13:34:35.433235+00:00", "meta": {"OBJECT_NAME": "COSMOS 2251 DEB", "OBJECT_ID": "1993-036BK", "EPOCH": "2025-12-12T22:32:20.243616", "MEAN_MOTION": 15.12515696, "ECCENTRICITY": 0.00269547, "INCLINATION": 74.0759, "RA_OF_ASC_NODE": 165.829, "ARG_OF_PERICENTER": 154.6193, "MEAN_ANOMALY": 327.025, "EPHEMERIS_TYPE": 0, "CLASSIFICATION_TYPE": "U", "NORAD_CAT_ID": 33818, "ELEMENT_SET_NO": 999, "REV_AT_EPOCH": 89865, "BSTAR": 0.003076367, "MEAN_MOTION_DOT": 0.00054435, "MEAN_MOTION_DDOT": 0}, "tle": {"line1": "1 33818U 93036BK  25346.93912319  .00054435  00000+0  30764-2 0  9993", "line2": "2 33818  74.0759 165.8290 0026954 154.6193 327.0250 15.12515696898659"}}, "geometry": {"type": "Point", "coordinates": [130.4446167177803, -63.00603134391511]}}, {"type": "Feature", "properties": {"norad_id": 33819, "name": "COSMOS 2251 DEB", "group": "cosmos-2251-debris", "lat": 1.3668278633429687, "lon": 27.96444123298439, "alt_km": 807.00055935615, "timestamp": "2025-12-13T13:34:35.433250+00:00", "meta": {"OBJECT_NAME": "COSMOS 2251 DEB", "OBJECT_ID": "1993-036BL", "EPOCH": "2025-12-12T18:40:32.532384", "MEAN_MOTION": 14.32223633, "ECCENTRICITY": 0.00890539, "INCLINATION": 74.1788, "RA_OF_ASC_NODE": 209.7761, "ARG_OF_PERICENTER": 71.0959, "MEAN_ANOMALY": 7.513, "EPHEMERIS_TYPE": 0, "CLASSIFICATION_TYPE": "U", "NORAD_CAT_ID": 33819, "ELEMENT_SET_NO": 999, "REV_AT_EPOCH": 87496, "BSTAR": 0.00099956751, "MEAN_MOTION_DOT": 2.792e-05, "MEAN_MOTION_DDOT": 0}, "tle": {"line1": "1 33819U 93036BL  25346.77815431  .00002792  00000+0  99957-3 0  9992", "line2": "2 33819  74.1788 209.7761 0089053  71.0959   7.5130 14.32223633874968"}}, "geometry": {"type": "Point", "coordinates": [27.96444123298439, 1.3668278633429687]}}, {"type": "Feature", "properties": {"norad_id": 33821, "name": "COSMOS 2251 DEB", "group": "cosmos-2251-debris", "lat": 46.19810773769912, "lon": -56.28239168802646, "alt_km": 459.2774236642508, "timestamp": "2025-12-13T13:34:35.433266+00:00", "meta": {"OBJECT_NAME": "COSMOS 2251 DEB", "OBJECT_ID": "1993-036BN", "EPOCH": "2025-12-12T21:15:37.901376", "MEAN_MOTION": 15.25322283, "ECCENTRICITY": 0.00518226, "INCLINATION": 74.0305, "RA_OF_ASC_NODE": 142.528, "ARG_OF_PERICENTER": 176.0876, "MEAN_ANOMALY": 184.0741, "EPHEMERIS_TYPE": 0, "CLASSIFICATION_TYPE": "U", "NORAD_CAT_ID": 33821, "ELEMENT_SET_NO": 999, "REV_AT_EPOCH": 75003, "BSTAR": 0.0016527522, "MEAN_MOTION_DOT": 0.00043498, "MEAN_MOTION_DDOT": 0}, "tle": {"line1": "1 33821U 93036BN  25346.88585534  .00043498  00000+0  16528-2 0  9995", "line2": "2 33821  74.0305 142.5280 0051822 176.0876 184.0741 15.25322283750036"}}, "geometry": {"type": "Point", "coordinates": [-56.28239168802646, 46.19810773769912]}}, {"type": "Feature", "properties": {"norad_id": 33822, "name": "COSMOS 2251 DEB", "group": "cosmos-2251-debris", "lat": -48.472824003833416, "lon": 173.4094938104514, "alt_km": 817.0026631410592, "timestamp": "2025-12-13T13:34:35.433276+00:00", "meta": {"OBJECT_NAME": "COSMOS 2251 DEB", "OBJECT_ID": "1993-036BP", "EPOCH": "2025-12-13T00:57:47.664000", "MEAN_MOTION": 14.13072036, "ECCENTRICITY": 0.01533025, "INCLINATION": 74.0697, "RA_OF_ASC_NODE": 193.152, "ARG_OF_PERICENTER": 239.422, "MEAN_ANOMALY": 275.4076, "EPHEMERIS_TYPE": 0, "CLASSIFICATION_TYPE": "U", "NORAD_CAT_ID": 33822, "ELEMENT_SET_NO": 999, "REV_AT_EPOCH": 86058, "BSTAR": 0.0017854022, "MEAN_MOTION_DOT": 3.704e-05, "MEAN_MOTION_DDOT": 0}, "tle": {"line1": "1 33822U 93036BP  25347.04013500  .00003704  00000+0  17854-2 0  9993", "line2": "2 33822  74.0697 193.1520 0153302 239.4220 275.4076 14.13072036860585"}}, "geometry": {"type": "Point", "coordinates": [173.4094938104514, -48.472824003833416]}}, {"type": "Feature", "properties": {"norad_id": 33823, "name": "COSMOS 2251 DEB", "group": "cosmos-2251-debris", "lat": 73.64105296256544, "lon": -130.3097005939675, "alt_km": 1041.6901211217573, "timestamp": "2025-12-13T13:34:35.433286+00:00", "meta": {"OBJECT_NAME": "COSMOS 2251 DEB", "OBJECT_ID": "1993-036BQ", "EPOCH": "2025-12-12T20:19:30.182304", "MEAN_MOTION": 13.9895052, "ECCENTRICITY": 0.0209346, "INCLINATION": 73.8088, "RA_OF_ASC_NODE": 149.1425, "ARG_OF_PERICENTER": 274.286, "MEAN_ANOMALY": 154.4861, "EPHEMERIS_TYPE": 0, "CLASSIFICATION_TYPE": "U", "NORAD_CAT_ID": 33823, "ELEMENT_SET_NO": 999, "REV_AT_EPOCH": 85611, "BSTAR": 0.0011091378, "MEAN_MOTION_DOT": 1.905e-05, "MEAN_MOTION_DDOT": 0}, "tle": {"line1": "1 33823U 93036BQ  25346.84687711  .00001905  00000+0  11091-2 0  9990", "line2": "2 33823  73.8088 149.1425 0209346 274.2860 154.4861 13.98950520856116"}}, "geometry": {"type": "Point", "coordinates": [-130.3097005939675, 73.64105296256544]}}]}